<?xml version="1.0" encoding="UTF-8"?>
<kml xmlns="http://www.opengis.net/kml/2.2">
<Document>
    <name>GridWatch Ireland - Energy Projects</name>
    <open>1</open>
    <description>Real-time energy planning applications in Ireland. Updated weekly.</description>

    <Style id="style_wind">
        <IconStyle>
            <scale>1.2</scale>
            <Icon>
                <href>http://maps.google.com/mapfiles/kml/pushpin/red-pushpin.png</href>
            </Icon>
        </IconStyle>
    </Style>

    <Style id="style_solar">
        <IconStyle>
            <scale>1.2</scale>
            <Icon>
                <href>http://maps.google.com/mapfiles/kml/pushpin/red-pushpin.png</href>
            </Icon>
        </IconStyle>
    </Style>

    <Style id="style_bess">
        <IconStyle>
            <scale>1.2</scale>
            <Icon>
                <href>http://maps.google.com/mapfiles/kml/pushpin/red-pushpin.png</href>
            </Icon>
        </IconStyle>
    </Style>

    <Style id="style_grid">
        <IconStyle>
            <scale>1.2</scale>
            <Icon>
                <href>http://maps.google.com/mapfiles/kml/pushpin/red-pushpin.png</href>
            </Icon>
        </IconStyle>
    </Style>

    <Style id="style_offshore">
        <IconStyle>
            <scale>1.2</scale>
            <Icon>
                <href>http://maps.google.com/mapfiles/kml/pushpin/red-pushpin.png</href>
            </Icon>
        </IconStyle>
    </Style>

    <Style id="style_biogas">
        <IconStyle>
            <scale>1.2</scale>
            <Icon>
                <href>http://maps.google.com/mapfiles/kml/pushpin/red-pushpin.png</href>
            </Icon>
        </IconStyle>
    </Style>

    <Style id="style_other">
        <IconStyle>
            <scale>1.2</scale>
            <Icon>
                <href>http://maps.google.com/mapfiles/kml/pushpin/red-pushpin.png</href>
            </Icon>
        </IconStyle>
    </Style>

    <Placemark>
        <name>Electricity Development ApplicationLocated in the townlands of Ballyneague, Ball</name>
        <styleUrl>#style_solar</styleUrl>
        <description>
            <![CDATA[
            <div style="font-family: Arial; max-width: 300px;">
                <b>Electricity Development ApplicationLocated in the townlands of Ballyneague, Ball</b><br>
                <b>Ref:</b> 324632<br>
                <b>Type:</b> SOLAR<br>
                <b>Status:</b> Case is due to be decided by Description: Proposed development of a 220kV Air Insulated Substation (AIS) and Loop-in Gri<br>
                <b>Lodged:</b> 08/09/2026<br>
                <a href="https://www.pleanala.ie/en-ie/case/324632" target="_blank">View Details →</a>
            </div>
            ]]>
        </description>
        <Point>
            <coordinates>-8.4756,51.8985,0</coordinates>
        </Point>
    </Placemark>

    <Placemark>
        <name>ReferralWestmanstown Sports and Conference Centre, Lucan Road, Clonsilla, Dublin</name>
        <styleUrl>#style_solar</styleUrl>
        <description>
            <![CDATA[
            <div style="font-family: Arial; max-width: 300px;">
                <b>ReferralWestmanstown Sports and Conference Centre, Lucan Road, Clonsilla, Dublin</b><br>
                <b>Ref:</b> 324639<br>
                <b>Type:</b> SOLAR<br>
                <b>Status:</b> Case is due to be decided by 11/01/2027 Description: Whether the construction of solar panels surface mounted 254 panels<br>
                <b>Lodged:</b> 08/09/2026<br>
                <a href="https://www.pleanala.ie/en-ie/case/324639" target="_blank">View Details →</a>
            </div>
            ]]>
        </description>
        <Point>
            <coordinates>-6.2603,53.3498,0</coordinates>
        </Point>
    </Placemark>

    <Placemark>
        <name>Planning AppealRathduff , Townland of Thomastown Demesne South , Co. TipperaryCa</name>
        <styleUrl>#style_solar</styleUrl>
        <description>
            <![CDATA[
            <div style="font-family: Arial; max-width: 300px;">
                <b>Planning AppealRathduff , Townland of Thomastown Demesne South , Co. TipperaryCa</b><br>
                <b>Ref:</b> 502104<br>
                <b>Type:</b> SOLAR<br>
                <b>Status:</b> Case due to be decided by 21-01-2027 Description: RED III. reconfiguration and enlargement to include solar farm and ESB<br>
                <b>Lodged:</b> 09/09/2026<br>
                <a href="https://www.pleanala.ie/en-ie/case/502104" target="_blank">View Details →</a>
            </div>
            ]]>
        </description>
        <Point>
            <coordinates>-7.8246,52.6807,0</coordinates>
        </Point>
    </Placemark>

    <Placemark>
        <name>Marine Development - Applicationlocated in the Irish Sea, approximately 10 km of</name>
        <styleUrl>#style_wind</styleUrl>
        <description>
            <![CDATA[
            <div style="font-family: Arial; max-width: 300px;">
                <b>Marine Development - Applicationlocated in the Irish Sea, approximately 10 km of</b><br>
                <b>Ref:</b> 324650<br>
                <b>Type:</b> WIND<br>
                <b>Status:</b> Case is due to be decided by Description: Proposed decommissioning of the Arklow Bank Wind Park Phase I, an offshore win<br>
                <b>Lodged:</b> 10/09/2026<br>
                <a href="https://www.pleanala.ie/en-ie/case/324650" target="_blank">View Details →</a>
            </div>
            ]]>
        </description>
        <Point>
            <coordinates>-6.3647,52.9915,0</coordinates>
        </Point>
    </Placemark>

    <Placemark>
        <name>Amendment to decision on Electricity Developmentlocated within the townlands of </name>
        <styleUrl>#style_solar</styleUrl>
        <description>
            <![CDATA[
            <div style="font-family: Arial; max-width: 300px;">
                <b>Amendment to decision on Electricity Developmentlocated within the townlands of </b><br>
                <b>Ref:</b> 324130<br>
                <b>Type:</b> SOLAR<br>
                <b>Status:</b> Withdrawn Description: Proposed alteration to the permitted Ballinrea 110kV Substation and Underground Grid Connection (<br>
                <b>Lodged:</b> 09/03/2026<br>
                <a href="https://www.pleanala.ie/en-ie/case/324130" target="_blank">View Details →</a>
            </div>
            ]]>
        </description>
        <Point>
            <coordinates>-8.4756,51.8985,0</coordinates>
        </Point>
    </Placemark>

    <Placemark>
        <name>Private Development - REDIII Pre-applicationTownlands of Loughill, Ballyouskill,</name>
        <styleUrl>#style_wind</styleUrl>
        <description>
            <![CDATA[
            <div style="font-family: Arial; max-width: 300px;">
                <b>Private Development - REDIII Pre-applicationTownlands of Loughill, Ballyouskill,</b><br>
                <b>Ref:</b> 316156<br>
                <b>Type:</b> WIND<br>
                <b>Status:</b> Withdrawn Description: Proposed development of Fassa Windfarm which comprises between 13 and 20 no. wind turbines along <br>
                <b>Lodged:</b> 24/03/2023<br>
                <a href="https://www.pleanala.ie/en-ie/case/316156" target="_blank">View Details →</a>
            </div>
            ]]>
        </description>
        <Point>
            <coordinates>-8.2439,53.4129,0</coordinates>
        </Point>
    </Placemark>

    <Placemark>
        <name>Leave to Appeal S37(6)Kilathmoy Substation , Athea Upper , Athea Co. LimerickCas</name>
        <styleUrl>#style_bess</styleUrl>
        <description>
            <![CDATA[
            <div style="font-family: Arial; max-width: 300px;">
                <b>Leave to Appeal S37(6)Kilathmoy Substation , Athea Upper , Athea Co. LimerickCas</b><br>
                <b>Ref:</b> 501904<br>
                <b>Type:</b> BESS<br>
                <b>Status:</b> Application for leave to appeal refused Description: RED III: 10 year permission for Long duration energy storage facili<br>
                <b>Lodged:</b> 19/08/2026<br>
                <a href="https://www.pleanala.ie/en-ie/case/501904" target="_blank">View Details →</a>
            </div>
            ]]>
        </description>
        <Point>
            <coordinates>-8.6267,52.6638,0</coordinates>
        </Point>
    </Placemark>

    <Placemark>
        <name>Amendment to decision on Electricity Developmentlocated at Lysaghtstown, Mildeto</name>
        <styleUrl>#style_solar</styleUrl>
        <description>
            <![CDATA[
            <div style="font-family: Arial; max-width: 300px;">
                <b>Amendment to decision on Electricity Developmentlocated at Lysaghtstown, Mildeto</b><br>
                <b>Ref:</b> 324628<br>
                <b>Type:</b> SOLAR<br>
                <b>Status:</b> Case is due to be decided by 07/01/2027 Description: Section 146B request to alter the permitted 110kV substation (ABP-3<br>
                <b>Lodged:</b> 04/09/2026<br>
                <a href="https://www.pleanala.ie/en-ie/case/324628" target="_blank">View Details →</a>
            </div>
            ]]>
        </description>
        <Point>
            <coordinates>-8.4756,51.8985,0</coordinates>
        </Point>
    </Placemark>

    <Placemark>
        <name>Planning AppealCase reference:324606Status:Case is due to be decided by 04/01/20</name>
        <styleUrl>#style_grid</styleUrl>
        <description>
            <![CDATA[
            <div style="font-family: Arial; max-width: 300px;">
                <b>Planning AppealCase reference:324606Status:Case is due to be decided by 04/01/20</b><br>
                <b>Ref:</b> 324606<br>
                <b>Type:</b> GRID<br>
                <b>Status:</b> Case is due to be decided by 04/01/2027<br>
                <b>Lodged:</b> 31/08/2026<br>
                <a href="https://www.pleanala.ie/en-ie/case/324606" target="_blank">View Details →</a>
            </div>
            ]]>
        </description>
        <Point>
            <coordinates>-6.6567,53.6046,0</coordinates>
        </Point>
    </Placemark>

    <Placemark>
        <name>Pre-Application Consultation RequestRicetown, Co. MeathCase reference:324626Stat</name>
        <styleUrl>#style_grid</styleUrl>
        <description>
            <![CDATA[
            <div style="font-family: Arial; max-width: 300px;">
                <b>Pre-Application Consultation RequestRicetown, Co. MeathCase reference:324626Stat</b><br>
                <b>Ref:</b> 324626<br>
                <b>Type:</b> GRID<br>
                <b>Status:</b> Case is due to be decided by 06/01/2027 Description: proposed extension and addition of new electrical equipment to a co<br>
                <b>Lodged:</b> 03/09/2026<br>
                <a href="https://www.pleanala.ie/en-ie/case/324626" target="_blank">View Details →</a>
            </div>
            ]]>
        </description>
        <Point>
            <coordinates>-6.6567,53.6046,0</coordinates>
        </Point>
    </Placemark>

    <Placemark>
        <name>Planning AppealPollymount, Bellanamullia, Scramoge, Treanaceeve and Ballyhubert,</name>
        <styleUrl>#style_wind</styleUrl>
        <description>
            <![CDATA[
            <div style="font-family: Arial; max-width: 300px;">
                <b>Planning AppealPollymount, Bellanamullia, Scramoge, Treanaceeve and Ballyhubert,</b><br>
                <b>Ref:</b> 502020<br>
                <b>Type:</b> WIND<br>
                <b>Status:</b> Case due to be decided by 14-01-2027 Description: 10-year planning permission and 35-year operational life of a wind far<br>
                <b>Lodged:</b> 02/09/2026<br>
                <a href="https://www.pleanala.ie/en-ie/case/502020" target="_blank">View Details →</a>
            </div>
            ]]>
        </description>
        <Point>
            <coordinates>-8.1868,53.6291,0</coordinates>
        </Point>
    </Placemark>

    <Placemark>
        <name>Filter</name>
        <styleUrl>#style_wind</styleUrl>
        <description>
            <![CDATA[
            <div style="font-family: Arial; max-width: 300px;">
                <b>Filter</b><br>
                <b>Ref:</b> 324452<br>
                <b>Type:</b> WIND<br>
                <b>Status:</b> Withdrawn Description: Request to alter the already permitted White Hill Wind Farm (ABP-315365-21 & ABP-319903-24),<br>
                <b>Lodged:</b> 22/07/2026<br>
                <a href="https://www.pleanala.ie/en-ie/case/324452" target="_blank">View Details →</a>
            </div>
            ]]>
        </description>
        <Point>
            <coordinates>-6.9298,52.8377,0</coordinates>
        </Point>
    </Placemark>

    <Placemark>
        <name>REDIII Amendment - Private Developmentlocated in the townlands of Ballydonaghan,</name>
        <styleUrl>#style_wind</styleUrl>
        <description>
            <![CDATA[
            <div style="font-family: Arial; max-width: 300px;">
                <b>REDIII Amendment - Private Developmentlocated in the townlands of Ballydonaghan,</b><br>
                <b>Ref:</b> 324593<br>
                <b>Type:</b> WIND<br>
                <b>Status:</b> Case is due to be decided by 28/12/2026 Description: Request to alter the conditions of the already permitted Carrownago<br>
                <b>Lodged:</b> 25/08/2026<br>
                <a href="https://www.pleanala.ie/en-ie/case/324593" target="_blank">View Details →</a>
            </div>
            ]]>
        </description>
        <Point>
            <coordinates>-9.0259,52.8627,0</coordinates>
        </Point>
    </Placemark>

    <Placemark>
        <name>Electricity Development Applicationand associated underground grid connection wo</name>
        <styleUrl>#style_grid</styleUrl>
        <description>
            <![CDATA[
            <div style="font-family: Arial; max-width: 300px;">
                <b>Electricity Development Applicationand associated underground grid connection wo</b><br>
                <b>Ref:</b> 324596<br>
                <b>Type:</b> GRID<br>
                <b>Status:</b> Case is due to be decided by 22/02/2027 Description: Proposed 110 kV Substation at a site fronting onto Steeven’s Lane, <br>
                <b>Lodged:</b> 25/08/2026<br>
                <a href="https://www.pleanala.ie/en-ie/case/324596" target="_blank">View Details →</a>
            </div>
            ]]>
        </description>
        <Point>
            <coordinates>-6.2603,53.3498,0</coordinates>
        </Point>
    </Placemark>

    <Placemark>
        <name>Planning AppealBallyoughtragh South Commons , Farranmanagh Knocknaman and Lishee</name>
        <styleUrl>#style_solar</styleUrl>
        <description>
            <![CDATA[
            <div style="font-family: Arial; max-width: 300px;">
                <b>Planning AppealBallyoughtragh South Commons , Farranmanagh Knocknaman and Lishee</b><br>
                <b>Ref:</b> 501954<br>
                <b>Type:</b> SOLAR<br>
                <b>Status:</b> Case due to be decided by 07-01-2027 Description: RED III: 10 year permission for solar farm and energy storage compound<br>
                <b>Lodged:</b> 26/08/2026<br>
                <a href="https://www.pleanala.ie/en-ie/case/501954" target="_blank">View Details →</a>
            </div>
            ]]>
        </description>
        <Point>
            <coordinates>-9.5231,52.1546,0</coordinates>
        </Point>
    </Placemark>

    <Placemark>
        <name>Pre-Application Consultation Requestlocated at Knockdinnin, County Louth.Case re</name>
        <styleUrl>#style_solar</styleUrl>
        <description>
            <![CDATA[
            <div style="font-family: Arial; max-width: 300px;">
                <b>Pre-Application Consultation Requestlocated at Knockdinnin, County Louth.Case re</b><br>
                <b>Ref:</b> 324602<br>
                <b>Type:</b> SOLAR<br>
                <b>Status:</b> Case is due to be decided by 30/12/2026 Description: Proposed development of a 110kV loop in/ loop out substation,<br>
                <b>Lodged:</b> 27/08/2026<br>
                <a href="https://www.pleanala.ie/en-ie/case/324602" target="_blank">View Details →</a>
            </div>
            ]]>
        </description>
        <Point>
            <coordinates>-6.4827,53.9257,0</coordinates>
        </Point>
    </Placemark>

    <Placemark>
        <name>Planning Appealtownlands of Chamberstown Scottstown, Shalvanstown , Mullagha, Ra</name>
        <styleUrl>#style_solar</styleUrl>
        <description>
            <![CDATA[
            <div style="font-family: Arial; max-width: 300px;">
                <b>Planning Appealtownlands of Chamberstown Scottstown, Shalvanstown , Mullagha, Ra</b><br>
                <b>Ref:</b> 501976<br>
                <b>Type:</b> SOLAR<br>
                <b>Status:</b> Case due to be decided by 06-01-2027 Description: RED III - Construction and operation of up to 559,033 sqm of solar PV <br>
                <b>Lodged:</b> 25/08/2026<br>
                <a href="https://www.pleanala.ie/en-ie/case/501976" target="_blank">View Details →</a>
            </div>
            ]]>
        </description>
        <Point>
            <coordinates>-6.6567,53.6046,0</coordinates>
        </Point>
    </Placemark>

    <Placemark>
        <name>Pre-Application Consultation RequestMullanafawnia, Co. OffalyCase reference:3246</name>
        <styleUrl>#style_grid</styleUrl>
        <description>
            <![CDATA[
            <div style="font-family: Arial; max-width: 300px;">
                <b>Pre-Application Consultation RequestMullanafawnia, Co. OffalyCase reference:3246</b><br>
                <b>Ref:</b> 324608<br>
                <b>Type:</b> GRID<br>
                <b>Status:</b> Case is due to be decided by 28/12/2026 Description: Proposed development of a new 110kV substation and 110kV Undergroun<br>
                <b>Lodged:</b> 24/08/2026<br>
                <a href="https://www.pleanala.ie/en-ie/case/324608" target="_blank">View Details →</a>
            </div>
            ]]>
        </description>
        <Point>
            <coordinates>-7.5,53.1,0</coordinates>
        </Point>
    </Placemark>

    <Placemark>
        <name>Private Development - REDIII Pre-applicationlocated at Inchera Little Island, Co</name>
        <styleUrl>#style_biogas</styleUrl>
        <description>
            <![CDATA[
            <div style="font-family: Arial; max-width: 300px;">
                <b>Private Development - REDIII Pre-applicationlocated at Inchera Little Island, Co</b><br>
                <b>Ref:</b> 324227<br>
                <b>Type:</b> BIOGAS<br>
                <b>Status:</b> Is not Strat. Infrast. Dev. Description: The proposed alterations to the approved Renewable Biogas Plant (Cork County Co<br>
                <b>Lodged:</b> 20/04/2026<br>
                <a href="https://www.pleanala.ie/en-ie/case/324227" target="_blank">View Details →</a>
            </div>
            ]]>
        </description>
        <Point>
            <coordinates>-8.4756,51.8985,0</coordinates>
        </Point>
    </Placemark>

    <Placemark>
        <name>Appeal - LRDBarrysparks and Crowscastle (lands generally bound by the R132 to th</name>
        <styleUrl>#style_grid</styleUrl>
        <description>
            <![CDATA[
            <div style="font-family: Arial; max-width: 300px;">
                <b>Appeal - LRDBarrysparks and Crowscastle (lands generally bound by the R132 to th</b><br>
                <b>Ref:</b> 324331<br>
                <b>Type:</b> GRID<br>
                <b>Status:</b> Contribution Appeal Decided Description: 10 year permission for construction of 530 residential units, Creche, 163 car p<br>
                <b>Lodged:</b> 29/05/2026<br>
                <a href="https://www.pleanala.ie/en-ie/case/324331" target="_blank">View Details →</a>
            </div>
            ]]>
        </description>
        <Point>
            <coordinates>-8.2439,53.4129,0</coordinates>
        </Point>
    </Placemark>

    <Placemark>
        <name>Pre-Application Consultation Requestin the townland of Forrest Great, Swords, Co</name>
        <styleUrl>#style_grid</styleUrl>
        <description>
            <![CDATA[
            <div style="font-family: Arial; max-width: 300px;">
                <b>Pre-Application Consultation Requestin the townland of Forrest Great, Swords, Co</b><br>
                <b>Ref:</b> 324386<br>
                <b>Type:</b> GRID<br>
                <b>Status:</b> Is a Strat. Infrast. Dev. Description: The proposed development Ridgewood 110V/MV Gas Insulated Switchgear (GIS) electri<br>
                <b>Lodged:</b> 18/06/2026<br>
                <a href="https://www.pleanala.ie/en-ie/case/324386" target="_blank">View Details →</a>
            </div>
            ]]>
        </description>
        <Point>
            <coordinates>-6.2603,53.3498,0</coordinates>
        </Point>
    </Placemark>

    <Placemark>
        <name>Planning AppealDrumanagh House, Loughshinny, Co. DublinCase reference:500519Stat</name>
        <styleUrl>#style_solar</styleUrl>
        <description>
            <![CDATA[
            <div style="font-family: Arial; max-width: 300px;">
                <b>Planning AppealDrumanagh House, Loughshinny, Co. DublinCase reference:500519Stat</b><br>
                <b>Ref:</b> 500519<br>
                <b>Type:</b> SOLAR<br>
                <b>Status:</b> Contribution Appeal Decided Description: Retention of prefabricated offices, equestrian structures and planning permissi<br>
                <b>Lodged:</b> 22/12/2025<br>
                <a href="https://www.pleanala.ie/en-ie/case/500519" target="_blank">View Details →</a>
            </div>
            ]]>
        </description>
        <Point>
            <coordinates>-6.2603,53.3498,0</coordinates>
        </Point>
    </Placemark>

    <Placemark>
        <name>Private Development - REDIII Pre-applicationlocated in the townlands of Ballygui</name>
        <styleUrl>#style_wind</styleUrl>
        <description>
            <![CDATA[
            <div style="font-family: Arial; max-width: 300px;">
                <b>Private Development - REDIII Pre-applicationlocated in the townlands of Ballygui</b><br>
                <b>Ref:</b> 323038<br>
                <b>Type:</b> WIND<br>
                <b>Status:</b> Is a Strat. Infrast. Dev. Description: Proposed Development of 24 no. wind turbines, associated hardstands, electrical c<br>
                <b>Lodged:</b> 10/07/2025<br>
                <a href="https://www.pleanala.ie/en-ie/case/323038" target="_blank">View Details →</a>
            </div>
            ]]>
        </description>
        <Point>
            <coordinates>-7.1101,52.2593,0</coordinates>
        </Point>
    </Placemark>

</Document>
</kml>